{"type": "FeatureCollection", "features": [ {"type": "Feature", "properties": {"norad_id": 33867, "name": "IRIDIUM 33 DEB", "group": "iridium-33-debris", "lat": 46.11214371282886, "lon": 161.17805848637929, "alt_km": 281.0430909315701, "timestamp": "2025-12-22T11:33:20.824533+00:00", "meta": {"OBJECT_NAME": "IRIDIUM 33 DEB", "OBJECT_ID": "1997-051AL", "EPOCH": "2025-12-21T22:55:51.891744", "MEAN_MOTION": 15.90971468, "ECCENTRICITY": 0.0014243, "INCLINATION": 86.3678, "RA_OF_ASC_NODE": 345.2475, "ARG_OF_PERICENTER": 91.4909, "MEAN_ANOMALY": 268.8004, "EPHEMERIS_TYPE": 0, "CLASSIFICATION_TYPE": "U", "NORAD_CAT_ID": 33867, "ELEMENT_SET_NO": 999, "REV_AT_EPOCH": 89656, "BSTAR": 0.0080182, "MEAN_MOTION_DOT": 0.02400384, "MEAN_MOTION_DDOT": 0.0036963}, "tle": {"line1": "1 33867U 97051AL  25355.95546171  .02400384  36963-2  80182-2 0  9998", "line2": "2 33867  86.3678 345.2475 0014243  91.4909 268.8004 15.90971468896565"}}, "geometry": {"type": "Point", "coordinates": [161.17805848637929, 46.11214371282886]}}, {"type": "Feature", "properties": {"norad_id": 33870, "name": "IRIDIUM 33 DEB", "group": "iridium-33-debris", "lat": -61.29625190509971, "lon": -119.26468709067801, "alt_km": 747.5590963132663, "timestamp": "2025-12-22T11:33:20.824544+00:00", "meta": {"OBJECT_NAME": "IRIDIUM 33 DEB", "OBJECT_ID": "1997-051AP", "EPOCH": "2025-12-21T16:45:39.931776", "MEAN_MOTION": 14.45892249, "ECCENTRICITY": 0.0022337, "INCLINATION": 86.3739, "RA_OF_ASC_NODE": 54.4207, "ARG_OF_PERICENTER": 149.5314, "MEAN_ANOMALY": 337.9924, "EPHEMERIS_TYPE": 0, "CLASSIFICATION_TYPE": "U", "NORAD_CAT_ID": 33870, "ELEMENT_SET_NO": 999, "REV_AT_EPOCH": 88266, "BSTAR": 0.00052329, "MEAN_MOTION_DOT": 1.884e-05, "MEAN_MOTION_DDOT": 0}, "tle": {"line1": "1 33870U 97051AP  25355.69837884  .00001884  00000+0  52329-3 0  9990", "line2": "2 33870  86.3739  54.4207 0022337 149.5314 337.9924 14.45892249882660"}}, "geometry": {"type": "Point", "coordinates": [-119.26468709067801, -61.29625190509971]}}, {"type": "Feature", "properties": {"norad_id": 33881, "name": "IRIDIUM 33 DEB", "group": "iridium-33-debris", "lat": 52.912115665920226, "lon": -82.28582647615477, "alt_km": 657.1203477206154, "timestamp": "2025-12-22T11:33:20.824555+00:00", "meta": {"OBJECT_NAME": "IRIDIUM 33 DEB", "OBJECT_ID": "1997-051BA", "EPOCH": "2025-12-22T01:53:28.694112", "MEAN_MOTION": 14.56726775, "ECCENTRICITY": 0.0061366, "INCLINATION": 86.3868, "RA_OF_ASC_NODE": 102.6839, "ARG_OF_PERICENTER": 144.447, "MEAN_ANOMALY": 32.1992, "EPHEMERIS_TYPE": 0, "CLASSIFICATION_TYPE": "U", "NORAD_CAT_ID": 33881, "ELEMENT_SET_NO": 999, "REV_AT_EPOCH": 87636, "BSTAR": 0.0020421, "MEAN_MOTION_DOT": 9.388e-05, "MEAN_MOTION_DDOT": 0}, "tle": {"line1": "1 33881U 97051BA  25356.07880433  .00009388  00000+0  20421-2 0  9997", "line2": "2 33881  86.3868 102.6839 0061366 144.4470  32.1992 14.56726775876365"}}, "geometry": {"type": "Point", "coordinates": [-82.28582647615477, 52.912115665920226]}}, {"type": "Feature", "properties": {"norad_id": 33884, "name": "IRIDIUM 33 DEB", "group": "iridium-33-debris", "lat": 83.2680207155759, "lon": 37.96397520667923, "alt_km": 635.3625391679625, "timestamp": "2025-12-22T11:33:20.824565+00:00", "meta": {"OBJECT_NAME": "IRIDIUM 33 DEB", "OBJECT_ID": "1997-051BD", "EPOCH": "2025-12-21T19:42:17.168256", "MEAN_MOTION": 14.77591703, "ECCENTRICITY": 0.0008977, "INCLINATION": 86.3691, "RA_OF_ASC_NODE": 5.7181, "ARG_OF_PERICENTER": 287.8241, "MEAN_ANOMALY": 245.5748, "EPHEMERIS_TYPE": 0, "CLASSIFICATION_TYPE": "U", "NORAD_CAT_ID": 33884, "ELEMENT_SET_NO": 999, "REV_AT_EPOCH": 88981, "BSTAR": 0.0012316, "MEAN_MOTION_DOT": 8.831e-05, "MEAN_MOTION_DDOT": 0}, "tle": {"line1": "1 33884U 97051BD  25355.82103204  .00008831  00000+0  12316-2 0  9992", "line2": "2 33884  86.3691   5.7181 0008977 287.8241 245.5748 14.77591703889819"}}, "geometry": {"type": "Point", "coordinates": [37.96397520667923, 83.2680207155759]}}, {"type": "Feature", "properties": {"norad_id": 33886, "name": "IRIDIUM 33 DEB", "group": "iridium-33-debris", "lat": -2.03473355272366, "lon": 62.99939832036585, "alt_km": 783.0877214294251, "timestamp": "2025-12-22T11:33:20.824576+00:00", "meta": {"OBJECT_NAME": "IRIDIUM 33 DEB", "OBJECT_ID": "1997-051BF", "EPOCH": "2025-12-22T03:17:14.951040", "MEAN_MOTION": 14.36062316, "ECCENTRICITY": 0.0013155, "INCLINATION": 86.3821, "RA_OF_ASC_NODE": 63.2732, "ARG_OF_PERICENTER": 208.0761, "MEAN_ANOMALY": 169.9907, "EPHEMERIS_TYPE": 0, "CLASSIFICATION_TYPE": "U", "NORAD_CAT_ID": 33886, "ELEMENT_SET_NO": 999, "REV_AT_EPOCH": 88187, "BSTAR": 0.00017077, "MEAN_MOTION_DOT": 5.16e-06, "MEAN_MOTION_DDOT": 0}, "tle": {"line1": "1 33886U 97051BF  25356.13697860  .00000516  00000+0  17077-3 0  9997", "line2": "2 33886  86.3821  63.2732 0013155 208.0761 169.9907 14.36062316881875"}}, "geometry": {"type": "Point", "coordinates": [62.99939832036585, -2.03473355272366]}}, {"type": "Feature", "properties": {"norad_id": 33887, "name": "IRIDIUM 33 DEB", "group": "iridium-33-debris", "lat": -24.8450667739641, "lon": -2.521156884055204, "alt_km": 776.5421334769198, "timestamp": "2025-12-22T11:33:20.824586+00:00", "meta": {"OBJECT_NAME": "IRIDIUM 33 DEB", "OBJECT_ID": "1997-051BG", "EPOCH": "2025-12-21T18:06:57.603168", "MEAN_MOTION": 14.37228506, "ECCENTRICITY": 0.0005394, "INCLINATION": 86.3041, "RA_OF_ASC_NODE": 359.5069, "ARG_OF_PERICENTER": 190.9714, "MEAN_ANOMALY": 346.844, "EPHEMERIS_TYPE": 0, "CLASSIFICATION_TYPE": "U", "NORAD_CAT_ID": 33887, "ELEMENT_SET_NO": 999, "REV_AT_EPOCH": 88294, "BSTAR": 0.00011881, "MEAN_MOTION_DOT": 3.73e-06, "MEAN_MOTION_DDOT": 0}, "tle": {"line1": "1 33887U 97051BG  25355.75483337  .00000373  00000+0  11881-3 0  9995", "line2": "2 33887  86.3041 359.5069 0005394 190.9714 346.8440 14.37228506882940"}}, "geometry": {"type": "Point", "coordinates": [-2.521156884055204, -24.8450667739641]}}, {"type": "Feature", "properties": {"norad_id": 33953, "name": "IRIDIUM 33 DEB", "group": "iridium-33-debris", "lat": 73.39050168478566, "lon": -142.68951704651047, "alt_km": 690.5091623949484, "timestamp": "2025-12-22T11:33:20.824597+00:00", "meta": {"OBJECT_NAME": "IRIDIUM 33 DEB", "OBJECT_ID": "1997-051BN", "EPOCH": "2025-12-22T04:44:25.619136", "MEAN_MOTION": 14.55406947, "ECCENTRICITY": 0.0017835, "INCLINATION": 86.3836, "RA_OF_ASC_NODE": 49.6744, "ARG_OF_PERICENTER": 73.9809, "MEAN_ANOMALY": 345.1929, "EPHEMERIS_TYPE": 0, "CLASSIFICATION_TYPE": "U", "NORAD_CAT_ID": 33953, "ELEMENT_SET_NO": 999, "REV_AT_EPOCH": 88441, "BSTAR": 0.0010995, "MEAN_MOTION_DOT": 4.805e-05, "MEAN_MOTION_DDOT": 0}, "tle": {"line1": "1 33953U 97051BN  25356.19751874  .00004805  00000+0  10995-2 0  9990", "line2": "2 33953  86.3836  49.6744 0017835  73.9809 345.1929 14.55406947884416"}}, "geometry": {"type": "Point", "coordinates": [-142.68951704651047, 73.39050168478566]}}, {"type": "Feature", "properties": {"norad_id": 33960, "name": "IRIDIUM 33 DEB", "group": "iridium-33-debris", "lat": -62.81758677888627, "lon": 112.24843838041033, "alt_km": 623.697629651565, "timestamp": "2025-12-22T11:33:20.824608+00:00", "meta": {"OBJECT_NAME": "IRIDIUM 33 DEB", "OBJECT_ID": "1997-051BV", "EPOCH": "2025-12-21T20:10:45.329088", "MEAN_MOTION": 14.85604614, "ECCENTRICITY": 0.00073, "INCLINATION": 86.2546, "RA_OF_ASC_NODE": 285.222, "ARG_OF_PERICENTER": 45.5917, "MEAN_ANOMALY": 13.1513, "EPHEMERIS_TYPE": 0, "CLASSIFICATION_TYPE": "U", "NORAD_CAT_ID": 33960, "ELEMENT_SET_NO": 999, "REV_AT_EPOCH": 89002, "BSTAR": 0.002534, "MEAN_MOTION_DOT": 0.00022006, "MEAN_MOTION_DDOT": 0}, "tle": {"line1": "1 33960U 97051BV  25355.84080242  .00022006  00000+0  25340-2 0  9996", "line2": "2 33960  86.2546 285.2220 0007300  45.5917  13.1513 14.85604614890028"}}, "geometry": {"type": "Point", "coordinates": [112.24843838041033, -62.81758677888627]}}, {"type": "Feature", "properties": {"norad_id": 33966, "name": "IRIDIUM 33 DEB", "group": "iridium-33-debris", "lat": 30.26060427578349, "lon": 43.956325632671614, "alt_km": 728.9809441249135, "timestamp": "2025-12-22T11:33:20.824618+00:00", "meta": {"OBJECT_NAME": "IRIDIUM 33 DEB", "OBJECT_ID": "1997-051CB", "EPOCH": "2025-12-21T21:18:13.269312", "MEAN_MOTION": 14.49628063, "ECCENTRICITY": 0.0008431, "INCLINATION": 86.3913, "RA_OF_ASC_NODE": 42.1011, "ARG_OF_PERICENTER": 159.4641, "MEAN_ANOMALY": 13.9867, "EPHEMERIS_TYPE": 0, "CLASSIFICATION_TYPE": "U", "NORAD_CAT_ID": 33966, "ELEMENT_SET_NO": 999, "REV_AT_EPOCH": 88574, "BSTAR": 0.00044961, "MEAN_MOTION_DOT": 1.747e-05, "MEAN_MOTION_DDOT": 0}, "tle": {"line1": "1 33966U 97051CB  25355.88765358  .00001747  00000+0  44961-3 0  9994", "line2": "2 33966  86.3913  42.1011 0008431 159.4641  13.9867 14.49628063885743"}}, "geometry": {"type": "Point", "coordinates": [43.956325632671614, 30.26060427578349]}}, {"type": "Feature", "properties": {"norad_id": 34071, "name": "IRIDIUM 33 DEB", "group": "iridium-33-debris", "lat": 85.58525335397472, "lon": 137.70213792894103, "alt_km": 712.889551455426, "timestamp": "2025-12-22T11:33:20.824629+00:00", "meta": {"OBJECT_NAME": "IRIDIUM 33 DEB", "OBJECT_ID": "1997-051CE", "EPOCH": "2025-12-22T02:50:50.639424", "MEAN_MOTION": 14.49504105, "ECCENTRICITY": 0.0009918, "INCLINATION": 86.3448, "RA_OF_ASC_NODE": 13.7514, "ARG_OF_PERICENTER": 82.3168, "MEAN_ANOMALY": 277.9162, "EPHEMERIS_TYPE": 0, "CLASSIFICATION_TYPE": "U", "NORAD_CAT_ID": 34071, "ELEMENT_SET_NO": 999, "REV_AT_EPOCH": 88470, "BSTAR": 0.00053057, "MEAN_MOTION_DOT": 2.053e-05, "MEAN_MOTION_DDOT": 0}, "tle": {"line1": "1 34071U 97051CE  25356.11864166  .00002053  00000+0  53057-3 0  9993", "line2": "2 34071  86.3448  13.7514 0009918  82.3168 277.9162 14.49504105884700"}}, "geometry": {"type": "Point", "coordinates": [137.70213792894103, 85.58525335397472]}}]}